GLOBALSTAR M035         
1 25851U 99037A   25057.69980138 -.00000069  00000+0 -19023-3 0  9996
2 25851  51.9962 301.3681 0013762 159.1270 207.1501 11.04536646 84050
GLOBALSTAR M032         
1 25852U 99037B   25057.66016799  .00000047  00000+0  36414-2 0  9993
2 25852  51.9939 134.2739 0010734 342.8095  17.2340 11.19059742122411
GLOBALSTAR M051         
1 25853U 99037C   25057.87627570 -.00000019  00000+0  13043-2 0  9995
2 25853  51.9810 307.0087 0001459  38.9537 321.1378 11.42203728119789
GLOBALSTAR M030         
1 25854U 99037D   25058.18488077 -.00000120  00000+0 -94543-3 0  9997
2 25854  51.9868 119.3593 0003975 207.2190 152.8419 11.55100339137435
GLOBALSTAR M048         
1 25872U 99041A   25057.94267037 -.00000071  00000+0 -25046-4 0  9994
2 25872  51.9339 237.6167 0013048 358.9115 156.7320 11.33854963112478
GLOBALSTAR M026         
1 25873U 99041B   25057.45185767 -.00000038  00000+0  95476-3 0  9995
2 25873  52.0014  61.0380 0001682  80.9651  74.5380 11.06828216136229
GLOBALSTAR M043         
1 25874U 99041C   25057.79610446 -.00000017  00000+0  15204-2 0  9997
2 25874  51.9441 341.2110 0013543 122.6136 268.3600 11.25690073110440
GLOBALSTAR M028         
1 25875U 99041D   25058.57678568 -.00000069  00000+0  19857-3 0  9990
2 25875  51.9618 159.9024 0063543 192.8021 167.1228 12.50577837176492
